H1 CPF 01  gfz 2022 01 29 01  5291 tandemx   
H2 1003001  6202 36605    2022 01 29 00 59 42 2022 02 03 00 00 42   120 1 1  0 0 0
H9
10 0 59608  36702.000000  0    1530599.680  -4393296.609  -5087740.644
10 0 59608  36822.000000  0    1102661.920  -3800704.276  -5645500.167
10 0 59608  36942.000000  0     666600.290  -3134581.816  -6104571.489
10 0 59608  37062.000000  0     231180.150  -2406473.500  -6457022.605
10 0 59608  37182.000000  0    -195071.119  -1629121.803  -6696777.067
10 0 59608  37302.000000  0    -604026.680   -816244.005  -6819708.636
10 0 59608  37422.000000  0    -988110.358     17707.403  -6823704.769
10 0 59608  37542.000000  0   -1340433.350    857796.349  -6708697.897
10 0 59608  37662.000000  0   -1654914.944   1688863.704  -6476666.214
10 0 59608  37782.000000  0   -1926385.030   2495793.980  -6131603.112
10 0 59608  37902.000000  0   -2150668.718   3263784.898  -5679457.285
10 0 59608  38022.000000  0   -2324650.888   3978616.877  -5128040.238
10 0 59608  38142.000000  0   -2446319.959   4626917.512  -4486903.204
10 0 59608  38262.000000  0   -2514789.951   5196416.697  -3767181.748
10 0 59608  38382.000000  0   -2530299.018   5676185.076  -2981410.245
10 0 59608  38502.000000  0   -2494184.648   6056852.314  -2143311.042
10 0 59608  38622.000000  0   -2408836.386   6330801.464  -1267557.693
10 0 59608  38742.000000  0   -2277626.028   6492329.929   -369516.414
10 0 59608  38862.000000  0   -2104817.647   6537776.509    535025.911
10 0 59608  38982.000000  0   -1895458.559   6465611.016   1430148.329
10 0 59608  39102.000000  0   -1655252.066   6276476.225   2300087.752
10 0 59608  39222.000000  0   -1390417.204   5973185.228   3129524.893
10 0 59608  39342.000000  0   -1107539.998   5560676.316   3903860.124
10 0 59608  39462.000000  0    -813420.107   5045926.964   4609475.301
10 0 59608  39582.000000  0    -514914.511   4437826.230   5233977.045
10 0 59608  39702.000000  0    -218782.420   3747010.367   5766411.346
10 0 59608  39822.000000  0      68462.073   2985669.272   6197452.384
10 0 59608  39942.000000  0     340688.812   2167323.053   6519560.505
10 0 59608  40062.000000  0     592278.889   1306577.333   6727107.872
10 0 59608  40182.000000  0     818238.030    418859.208   6816470.955
10 0 59608  40302.000000  0    1014293.875   -479858.985   6786088.970
10 0 59608  40422.000000  0    1176975.928  -1373346.015   6636490.674
10 0 59608  40542.000000  0    1303677.045  -2245404.494   6370286.048
10 0 59608  40662.000000  0    1392695.351  -3080164.661   5992124.272
10 0 59608  40782.000000  0    1443255.637  -3862375.441   5508616.950
10 0 59608  40902.000000  0    1455510.143  -4577685.580   4928227.021
10 0 59608  41022.000000  0    1430519.850  -5212911.068   4261127.287
10 0 59608  41142.000000  0    1370215.637  -5756287.096   3519028.171
10 0 59608  41262.000000  0    1277339.839  -6197696.016   2714973.261
10 0 59608  41382.000000  0    1155369.056  -6528864.167   1863109.410
10 0 59608  41502.000000  0    1008419.924  -6743526.312    978435.635
10 0 59608  41622.000000  0     841140.778  -6837551.983     76533.412
10 0 59608  41742.000000  0     658590.430  -6809030.281   -826717.099
10 0 59608  41862.000000  0     466107.337  -6658306.711  -1715427.547
10 0 59608  41982.000000  0     269174.928  -6387973.694  -2573988.710
10 0 59608  42102.000000  0      73285.386  -6002817.844  -3387350.048
10 0 59608  42222.000000  0    -116195.160  -5509724.762  -4141287.098
10 0 59608  42342.000000  0    -294156.629  -4917542.657  -4822650.197
10 0 59608  42462.000000  0    -455866.707  -4236910.765  -5419588.784
10 0 59608  42582.000000  0    -597081.725  -3480057.457  -5921749.876
10 0 59608  42702.000000  0    -714144.098  -2660572.186  -6320447.572
10 0 59608  42822.000000  0    -804064.955  -1793156.554  -6608802.063
10 0 59608  42942.000000  0    -864590.624   -893359.849  -6781847.036
10 0 59608  43062.000000  0    -894252.143     22696.789  -6836606.680
10 0 59608  43182.000000  0    -892396.456    938604.039  -6772140.334
10 0 59608  43302.000000  0    -859199.565   1837950.580  -6589556.465
10 0 59608  43422.000000  0    -795661.623   2704609.646  -6291995.621
10 0 59608  43542.000000  0    -703583.435   3523022.449  -5884583.591
10 0 59608  43662.000000  0    -585524.902   4278475.697  -5374352.517
10 0 59608  43782.000000  0    -444745.644   4957366.743  -4770130.439
10 0 59608  43902.000000  0    -285129.477   5547453.958  -4082400.024
10 0 59608  44022.000000  0    -111093.382   6038086.201  -3323126.042
10 0 59608  44142.000000  0      72517.555   6420405.719  -2505554.472
10 0 59608  44262.000000  0     260546.915   6687520.679  -1643985.728
10 0 59608  44382.000000  0     447652.905   6834642.258   -753524.755
10 0 59608  44502.000000  0     628440.822   6859181.534    150187.360
10 0 59608  44622.000000  0     797598.719   6760803.129   1051254.814
10 0 59608  44742.000000  0     950032.252   6541432.864   1933815.203
10 0 59608  44862.000000  0    1080993.952   6205219.867   2782327.125
10 0 59608  44982.000000  0    1186205.154   5758455.693   3581851.122
10 0 59608  45102.000000  0    1261967.849   5209450.006   4318319.298
10 0 59608  45222.000000  0    1305264.742   4568368.443   4978787.749
10 0 59608  45342.000000  0    1313839.943   3847030.985   5551666.088
10 0 59608  45462.000000  0    1286264.273   3058684.238   6026914.736
10 0 59608  45582.000000  0    1221981.491   2217751.623   6396216.515
10 0 59608  45702.000000  0    1121334.497   1339563.736   6653116.745
10 0 59608  45822.000000  0     985571.819    440074.921   6793129.715
10 0 59608  45942.000000  0     816834.016   -464426.484   6813811.053
10 0 59608  46062.000000  0     618120.055  -1357611.939   6714799.250
10 0 59608  46182.000000  0     393233.906  -2223407.530   6497821.975
10 0 59608  46302.000000  0     146712.028  -3046283.428   6166668.266
10 0 59608  46422.000000  0    -116266.437  -3811534.305   5727124.520
10 0 59608  46542.000000  0    -389984.682  -4505542.616   5186877.527
10 0 59608  46662.000000  0    -668307.242  -5116024.660   4555388.375
10 0 59608  46782.000000  0    -944812.514  -5632257.757   3843734.320
10 0 59608  46902.000000  0   -1212935.387  -6045278.956   3064416.644
10 0 59608  47022.000000  0   -1466116.095  -6348049.683   2231141.414
10 0 59608  47142.000000  0   -1697952.220  -6535585.343   1358577.197
10 0 59608  47262.000000  0   -1902351.412  -6605044.759    462090.985
10 0 59608  47382.000000  0   -2073677.890  -6555775.520   -442530.709
10 0 59608  47502.000000  0   -2206890.394  -6389315.435  -1339368.642
10 0 59608  47622.000000  0   -2297668.462  -6109350.064  -2212659.362
10 0 59608  47742.000000  0   -2342523.958  -5721627.611  -3047079.701
10 0 59608  47862.000000  0   -2338894.673  -5233832.743  -3828021.089
10 0 59608  47982.000000  0   -2285217.508  -4655423.204  -4541846.574
10 0 59608  48102.000000  0   -2180980.131  -3997435.453  -5176125.498
10 0 59608  48222.000000  0   -2026750.740  -3272264.979  -5719843.155
10 0 59608  48342.000000  0   -1824185.594  -2493426.006  -6163583.436
10 0 59608  48462.000000  0   -1576013.686  -1675294.849  -6499681.638
10 0 59608  48582.000000  0   -1285999.695   -832843.219  -6722344.964
10 0 59608  48702.000000  0    -958887.097     18633.309  -6827741.688
10 0 59608  48822.000000  0    -600321.287    863787.495  -6814059.370
10 0 59608  48942.000000  0    -216753.533   1687489.922  -6681532.426
10 0 59608  49062.000000  0     184671.246   2475092.609  -6432438.543
10 0 59608  49182.000000  0     596243.527   3212684.545  -6071065.900
10 0 59608  49302.000000  0    1009833.978   3887335.642  -5603647.022
10 0 59608  49422.000000  0    1417049.428   4487323.149  -5038260.935
10 0 59608  49542.000000  0    1809399.245   5002339.636  -4384705.743
10 0 59608  49662.000000  0    2178469.245   5423677.986  -3654338.864
10 0 59608  49782.000000  0    2516098.916   5744387.634  -2859887.969
10 0 59608  49902.000000  0    2814559.020   5959400.275  -2015235.272
10 0 59608  50022.000000  0    3066725.530   6065620.807  -1135176.750
10 0 59608  50142.000000  0    3266244.607   6061979.869   -235160.255
10 0 59608  50262.000000  0    3407683.936   5949445.422    668991.464
10 0 59608  50382.000000  0    3486667.093   5730993.181   1561365.946
10 0 59608  50502.000000  0    3499987.930   5411537.573   2426248.946
10 0 59608  50622.000000  0    3445700.617   4997824.145   3248409.929
10 0 59608  50742.000000  0    3323184.188   4498283.797   4013377.906
10 0 59608  50862.000000  0    3133180.303   3922856.198   4707700.405
10 0 59608  50982.000000  0    2877799.529   3282784.939   5319184.273
10 0 59608  51102.000000  0    2560499.389   2590389.309   5837106.550
10 0 59608  51222.000000  0    2186038.120   1858822.076   6252397.517
10 0 59608  51342.000000  0    1760401.661   1101814.946   6557795.141
10 0 59608  51462.000000  0    1290704.923    333417.584   6747965.076
10 0 59608  51582.000000  0     785071.087   -432262.379   6819587.538
10 0 59608  51702.000000  0     252490.777  -1181317.722   6771413.185
10 0 59608  51822.000000  0    -297338.065  -1900294.422   6604283.504
10 0 59608  51942.000000  0    -854186.769  -2576433.182   6321116.476
10 0 59608  52062.000000  0   -1407485.033  -3197896.126   5926857.207
10 0 59608  52182.000000  0   -1946518.641  -3753974.774   5428396.706
10 0 59608  52302.000000  0   -2460636.667  -4235278.342   4834459.744
10 0 59608  52422.000000  0   -2939464.560  -4633898.936   4155459.183
10 0 59608  52542.000000  0   -3373116.768  -4943548.364   3403317.080
10 0 59608  52662.000000  0   -3752402.714  -5159663.370   2591256.096
10 0 59608  52782.000000  0   -4069022.243  -5279477.378   1733566.308
10 0 59608  52902.000000  0   -4315747.575  -5302056.962    845349.989
10 0 59608  53022.000000  0   -4486585.910  -5228300.891    -57750.682
10 0 59608  53142.000000  0   -4576918.765  -5060902.321   -959837.105
99
